[
    {
        "Altitude(m)": 607897.6423652015,
        "Argument of Periapsis(deg)": 0.0,
        "Eccentricity": 0.0,
        "Inclination(deg)": 60.0,
        "Latitude(deg)": -14.29309086780288,
        "Longitude(deg)": -68.38123545953583,
        "Mean Anomaly(deg)": -16.36360000000003,
        "RAAN(deg)": 40.0,
        "Satellite Name": "Test1 197",
        "Satellite Number": 197,
        "Semi-Major Axis(m)": 6980739.136638005,
        "Time(s)": 0
    },
    {
        "Altitude(m)": 607750.8426644807,
        "Argument of Periapsis(deg)": 0.00010418945913296404,
        "Eccentricity": 0.0,
        "Inclination(deg)": 60.0,
        "Latitude(deg)": -13.758932086862975,
        "Longitude(deg)": -68.09416670996038,
        "Mean Anomaly(deg)": -15.743493854538189,
        "RAAN(deg)": 39.99957995086026,
        "Satellite Name": "Test1 197",
        "Satellite Number": 197,
        "Semi-Major Axis(m)": 6980739.136638005,
        "Time(s)": 10
    }
]